H1 CPF  1  MCC 2022 10 12 14  7851 larets
H2  0304206 5557    27944 2022 10 11 23 45 00 2022 10 16 23 57 00   180 1 1  0 0 0
H9
10 0 59863 85500.000000 0     -4255431.499     -3909933.349      4062329.477
10 0 59863 85680.000000 0     -4951804.724     -4115910.193      2906115.038
10 0 59863 85860.000000 0     -5471382.425     -4156284.405      1643477.504
10 0 59863 86040.000000 0     -5790851.653     -4034444.039       320618.023
10 0 59863 86220.000000 0     -5894398.878     -3760239.080     -1013993.772
10 0 59864     0.000000 0     -5774476.294     -3349423.909     -2311441.334
10 0 59864   180.000000 0     -5432219.385     -2822847.250     -3524206.125
10 0 59864   360.000000 0     -4877497.715     -2205437.871     -4607943.412
10 0 59864   540.000000 0     -4128604.479     -1525042.700     -5523115.946
10 0 59864   720.000000 0     -3211604.376      -811177.520     -6236422.896
10 0 59864   900.000000 0     -2159376.859       -93750.380     -6721973.147
10 0 59864  1080.000000 0     -1010402.552       598181.503     -6962173.402
10 0 59864  1260.000000 0       192653.942      1237571.523     -6948317.290
10 0 59864  1440.000000 0      1404513.973      1800425.324     -6680877.038
10 0 59864  1620.000000 0      2578970.348      2266693.419     -6169498.340
10 0 59864  1800.000000 0      3670639.823      2620988.942     -5432683.384
10 0 59864  1980.000000 0      4636718.659      2853103.307     -4497168.392
10 0 59864  2160.000000 0      5438687.303      2958305.054     -3397005.756
10 0 59864  2340.000000 0      6043891.201      2937405.506     -2172359.740
10 0 59864  2520.000000 0      6426925.781      2796586.664      -868051.976
10 0 59864  2700.000000 0      6570750.827      2546991.038       468100.048
10 0 59864  2880.000000 0      6467467.781      2204089.952      1787080.017
10 0 59864  3060.000000 0      6118718.315      1786866.023      3040520.997
10 0 59864  3240.000000 0      5535683.628      1316852.480      4182528.336
10 0 59864  3420.000000 0      4738680.406       817079.315      5171388.078
10 0 59864  3600.000000 0      3756387.798       310986.199      5971086.285
10 0 59864  3780.000000 0      2624749.454      -178644.992      6552590.864
10 0 59864  3960.000000 0      1385609.742      -630684.945      6894852.674
10 0 59864  4140.000000 0        85146.327     -1026543.086      6985518.656
10 0 59864  4320.000000 0     -1227852.370     -1350915.716      6821339.914
10 0 59864  4500.000000 0     -2503800.425     -1592369.275      6408270.259
10 0 59864  4680.000000 0     -3694162.561     -1743738.969      5761264.689
10 0 59864  4860.000000 0     -4753294.822     -1802336.360      4903785.091
10 0 59864  5040.000000 0     -5640217.442     -1769960.727      3866998.863
10 0 59864  5220.000000 0     -6320240.556     -1652705.767      2688686.542
10 0 59864  5400.000000 0     -6766376.470     -1460570.186      1411893.865
10 0 59864  5580.000000 0     -6960476.556     -1206889.877        83358.445
10 0 59864  5760.000000 0     -6894015.678      -907612.507     -1248233.317
10 0 59864  5940.000000 0     -6568478.959      -580452.482     -2534077.251
10 0 59864  6120.000000 0     -5995331.485      -243973.348     -3727086.120
10 0 59864  6300.000000 0     -5195574.358        83355.000     -4783650.316
10 0 59864  6480.000000 0     -4198909.582       384078.246     -5665241.878
10 0 59864  6660.000000 0     -3042568.228       642608.053     -6339799.618
10 0 59864  6840.000000 0     -1769864.009       845959.736     -6782850.030
10 0 59864  7020.000000 0      -428543.426       984349.283     -6978343.044
10 0 59864  7200.000000 0       931005.656      1051629.186     -6919188.598
10 0 59864  7380.000000 0      2257625.836      1045547.973     -6607498.545
10 0 59864  7560.000000 0      3501300.259       967826.919     -6054525.470
10 0 59864  7740.000000 0      4615033.163       824049.948     -5280287.797
10 0 59864  7920.000000 0      5556639.850       623369.247     -4312895.309
10 0 59864  8100.000000 0      6290388.619       378037.704     -3187578.217
10 0 59864  8280.000000 0      6788419.878       102783.713     -1945437.285
10 0 59864  8460.000000 0      7031877.436      -185944.887      -631949.221
10 0 59864  8640.000000 0      7011682.453      -470831.585       704723.874
10 0 59864  8820.000000 0      6728906.052      -734593.438      2015545.039
10 0 59864  9000.000000 0      6194717.095      -960888.070      3252456.105
10 0 59864  9180.000000 0      5429902.211     -1135174.766      4370185.949
10 0 59864  9360.000000 0      4463994.953     -1245485.217      5327927.152
10 0 59864  9540.000000 0      3334064.718     -1283064.950      6090817.403
10 0 59864  9720.000000 0      2083232.926     -1242854.640      6631173.107
10 0 59864  9900.000000 0       758989.253     -1123797.235      6929443.829
10 0 59864 10080.000000 0      -588625.982      -928957.802      6974870.521
10 0 59864 10260.000000 0     -1908903.929      -665451.892      6765835.400
10 0 59864 10440.000000 0     -3152351.660      -344186.618      6309909.763
10 0 59864 10620.000000 0     -4272529.424        20578.996      5623603.602
10 0 59864 10800.000000 0     -5227791.257       411839.912      4731813.604
10 0 59864 10980.000000 0     -5982865.622       810597.206      3666968.967
10 0 59864 11160.000000 0     -6510209.483      1196729.569      2467892.506
10 0 59864 11340.000000 0     -6791077.059      1549947.739      1178407.710
10 0 59864 11520.000000 0     -6816249.649      1850786.486      -154269.070
10 0 59864 11700.000000 0     -6586376.960      2081584.311     -1481292.561
10 0 59864 11880.000000 0     -6111905.166      2227396.680     -2754026.304
10 0 59864 12060.000000 0     -5412597.128      2276797.322     -3925873.927
10 0 59864 12240.000000 0     -4516664.373      2222521.176     -4954018.735
10 0 59864 12420.000000 0     -3459567.750      2061916.769     -5800989.739
10 0 59864 12600.000000 0     -2282558.938      1797192.448     -6435998.936
10 0 59864 12780.000000 0     -1031033.303      1435448.111     -6836016.666
10 0 59864 12960.000000 0       247236.942       988492.190     -6986553.937
10 0 59864 13140.000000 0      1503914.171       472455.432     -6882147.265
10 0 59864 13320.000000 0      2691905.209       -92786.779     -6526548.414
10 0 59864 13500.000000 0      3767114.359      -684369.507     -5932602.957
10 0 59864 13680.000000 0      4690080.503     -1277345.326     -5121822.157
10 0 59864 13860.000000 0      5427449.089     -1845716.805     -4123657.131
10 0 59864 14040.000000 0      5953227.373     -2363559.176     -2974477.590
10 0 59864 14220.000000 0      6249762.625     -2806183.900     -1716274.603
10 0 59864 14400.000000 0      6308391.077     -3151289.212      -395125.499
10 0 59864 14580.000000 0      6129719.707     -3380038.546       940520.585
10 0 59864 14760.000000 0      5723521.879     -3478010.227      2241667.042
10 0 59864 14940.000000 0      5108242.959     -3435964.065      3460623.453
10 0 59864 15120.000000 0      4310144.221     -3250382.070      4552793.720
10 0 59864 15300.000000 0      3362142.891     -2923760.421      5478322.480
10 0 59864 15480.000000 0      2302406.102     -2464643.622      6203538.255
10 0 59864 15660.000000 0      1172774.701     -1887399.870      6702139.013
10 0 59864 15840.000000 0        17091.272     -1211756.732      6956093.791
10 0 59864 16020.000000 0     -1120500.831      -462115.651      6956244.819
10 0 59864 16200.000000 0     -2197226.568       333329.420      6702606.264
10 0 59864 16380.000000 0     -3173268.128      1143642.146      6204361.027
10 0 59864 16560.000000 0     -4013228.648      1936331.382      5479554.946
10 0 59864 16740.000000 0     -4687428.272      2678640.266      4554490.884
10 0 59864 16920.000000 0     -5172986.552      3338895.176      3462823.750
10 0 59864 17100.000000 0     -5454641.469      3887858.258      2244373.504
10 0 59864 17280.000000 0     -5525269.285      4300026.894       943691.031
10 0 59864 17460.000000 0     -5386073.608      4554814.605      -391583.805
10 0 59864 17640.000000 0     -5046425.048      4637546.207     -1712503.376
10 0 59864 17820.000000 0     -4523357.283      4540216.286     -2970658.650
10 0 59864 18000.000000 0     -3840738.281      4261961.494     -4120003.074
10 0 59864 18180.000000 0     -3028167.396      3809225.386     -5118562.775
10 0 59864 18360.000000 0     -2119666.498      3195617.231     -5929961.447
10 0 59864 18540.000000 0     -1152235.825      2441480.532     -6524715.557
10 0 59864 18720.000000 0      -164334.169      1573188.435     -6881260.771
10 0 59864 18900.000000 0       805646.442       622202.974     -6986683.102
10 0 59864 19080.000000 0      1720858.187      -376065.239     -6837154.193
10 0 59864 19260.000000 0      2547384.555     -1383565.318     -6438060.487
10 0 59864 19440.000000 0      3255488.742     -2361039.440     -5803825.486
10 0 59864 19620.000000 0      3820691.086     -3269539.440     -4957433.219
10 0 59864 19800.000000 0      4224640.975     -4071986.100     -3929647.098
10 0 59864 19980.000000 0      4455739.738     -4734700.142     -2757933.828
10 0 59864 20160.000000 0      4509495.387     -5228844.092     -1485125.379
10 0 59864 20340.000000 0      4388583.162     -5531707.668      -157848.701
10 0 59864 20520.000000 0      4102598.439     -5627761.434      1175216.848
10 0 59864 20700.000000 0      3667513.283     -5509419.414      2465176.750
10 0 59864 20880.000000 0      3104861.633     -5177465.524      3664768.180
10 0 59864 21060.000000 0      2440700.313     -4641127.043      4730126.727
10 0 59864 21240.000000 0      1704407.028     -3917795.108      5622400.560
10 0 59864 21420.000000 0       927377.253     -3032412.767      6309150.005
10 0 59864 21600.000000 0       141681.801     -2016564.881      6765484.527
10 0 59864 21780.000000 0      -621250.862      -907319.826      6974908.198
10 0 59864 21960.000000 0     -1331876.079       254131.659      6929871.246
99
